ADRAS-J                 
1 58992U 24034A   24291.53997611  .00006939  00000+0  61243-3 0  9990
2 58992  98.2259 270.3572 0042684   8.4735 351.7195 14.96036994 36143
